{
  "type": "FeatureCollection",
  "features": [
    {
      "type": "Feature",
      "properties": {
        "norad_id": 36828,
        "name": "BEIDOU-2 IGSO-1 (C06)",
        "group": "beidou",
        "lat": 50.925616537221615,
        "lon": -77.85863577800444,
        "alt_km": 35848.497468814545,
        "timestamp": "2025-12-08T05:48:09.299591+00:00",
        "meta_object_name": "BEIDOU-2 IGSO-1 (C06)",
        "meta_object_id": "2010-036A",
        "meta_epoch": "2025-12-07T22:42:27.537984",
        "meta_mean_motion": 1.00277452,
        "meta_eccentricity": 0.00512392,
        "meta_inclination": 54.2867,
        "meta_ra_of_asc_node": 164.691,
        "meta_arg_of_pericenter": 215.8688,
        "meta_mean_anomaly": 144.8467,
        "meta_ephemeris_type": 0,
        "meta_classification_type": "U",
        "meta_norad_cat_id": 36828,
        "meta_element_set_no": 999,
        "meta_rev_at_epoch": 5618,
        "meta_bstar": 0,
        "meta_mean_motion_dot": -6.8e-07,
        "meta_mean_motion_ddot": 0,
        "tle_line1": "1 36828U 10036A   25341.94615206 -.00000068  00000+0  00000+0 0  9998",
        "tle_line2": "2 36828  54.2867 164.6910 0051239 215.8688 144.8467  1.00277452 56188"
      },
      "geometry": {
        "type": "Point",
        "coordinates": [
          -77.85863577800444,
          50.925616537221615
        ]
      }
    },
    {
      "type": "Feature",
      "properties": {
        "norad_id": 37210,
        "name": "BEIDOU-2 G4 (C04)",
        "group": "beidou",
        "lat": -3.0670788646442224,
        "lon": -35.54467280532453,
        "alt_km": 35766.541191620585,
        "timestamp": "2025-12-08T05:48:09.299616+00:00",
        "meta_object_name": "BEIDOU-2 G4 (C04)",
        "meta_object_id": "2010-057A",
        "meta_epoch": "2025-12-07T21:14:37.294368",
        "meta_mean_motion": 1.00271448,
        "meta_eccentricity": 0.001092,
        "meta_inclination": 3.1724,
        "meta_ra_of_asc_node": 69.95,
        "meta_arg_of_pericenter": 190.1489,
        "meta_mean_anomaly": 295.5319,
        "meta_ephemeris_type": 0,
        "meta_classification_type": "U",
        "meta_norad_cat_id": 37210,
        "meta_element_set_no": 999,
        "meta_rev_at_epoch": 5537,
        "meta_bstar": 0,
        "meta_mean_motion_dot": -1.09e-06,
        "meta_mean_motion_ddot": 0,
        "tle_line1": "1 37210U 10057A   25341.88515387 -.00000109  00000+0  00000+0 0  9995",
        "tle_line2": "2 37210   3.1724  69.9500 0010920 190.1489 295.5319  1.00271448 55376"
      },
      "geometry": {
        "type": "Point",
        "coordinates": [
          -35.54467280532453,
          -3.0670788646442224
        ]
      }
    },
    {
      "type": "Feature",
      "properties": {
        "norad_id": 37256,
        "name": "BEIDOU-2 IGSO-2 (C07)",
        "group": "beidou",
        "lat": -1.6064501510606368,
        "lon": -87.26968483630797,
        "alt_km": 35945.09306601943,
        "timestamp": "2025-12-08T05:48:09.299631+00:00",
        "meta_object_name": "BEIDOU-2 IGSO-2 (C07)",
        "meta_object_id": "2010-068A",
        "meta_epoch": "2025-12-03T17:22:36.030432",
        "meta_mean_motion": 1.0028871,
        "meta_eccentricity": 0.00492335,
        "meta_inclination": 47.9043,
        "meta_ra_of_asc_node": 274.2613,
        "meta_arg_of_pericenter": 216.1442,
        "meta_mean_anomaly": 310.2369,
        "meta_ephemeris_type": 0,
        "meta_classification_type": "U",
        "meta_norad_cat_id": 37256,
        "meta_element_set_no": 999,
        "meta_rev_at_epoch": 5483,
        "meta_bstar": 0,
        "meta_mean_motion_dot": -2.25e-06,
        "meta_mean_motion_ddot": 0,
        "tle_line1": "1 37256U 10068A   25337.72402813 -.00000225  00000+0  00000+0 0  9993",
        "tle_line2": "2 37256  47.9043 274.2613 0049233 216.1442 310.2369  1.00288710 54839"
      },
      "geometry": {
        "type": "Point",
        "coordinates": [
          -87.26968483630797,
          -1.6064501510606368
        ]
      }
    },
    {
      "type": "Feature",
      "properties": {
        "norad_id": 37384,
        "name": "BEIDOU-2 IGSO-3 (C08)",
        "group": "beidou",
        "lat": -42.78521167599783,
        "lon": -108.73800651972368,
        "alt_km": 35682.4183834776,
        "timestamp": "2025-12-08T05:48:09.299645+00:00",
        "meta_object_name": "BEIDOU-2 IGSO-3 (C08)",
        "meta_object_id": "2011-013A",
        "meta_epoch": "2025-12-07T14:00:04.361184",
        "meta_mean_motion": 1.00271436,
        "meta_eccentricity": 0.0035334,
        "meta_inclination": 62.1366,
        "meta_ra_of_asc_node": 41.9657,
        "meta_arg_of_pericenter": 187.0582,
        "meta_mean_anomaly": 165.2458,
        "meta_ephemeris_type": 0,
        "meta_classification_type": "U",
        "meta_norad_cat_id": 37384,
        "meta_element_set_no": 999,
        "meta_rev_at_epoch": 5373,
        "meta_bstar": 0,
        "meta_mean_motion_dot": -1.91e-06,
        "meta_mean_motion_ddot": 0,
        "tle_line1": "1 37384U 11013A   25341.58338381 -.00000191  00000+0  00000+0 0  9995",
        "tle_line2": "2 37384  62.1366  41.9657 0035334 187.0582 165.2458  1.00271436 53735"
      },
      "geometry": {
        "type": "Point",
        "coordinates": [
          -108.73800651972368,
          -42.78521167599783
        ]
      }
    },
    {
      "type": "Feature",
      "properties": {
        "norad_id": 37763,
        "name": "BEIDOU-2 IGSO-4 (C09)",
        "group": "beidou",
        "lat": 54.52294240993773,
        "lon": -102.52241115978894,
        "alt_km": 36256.424353024566,
        "timestamp": "2025-12-08T05:48:09.299658+00:00",
        "meta_object_name": "BEIDOU-2 IGSO-4 (C09)",
        "meta_object_id": "2011-038A",
        "meta_epoch": "2025-12-01T12:32:09.960864",
        "meta_mean_motion": 1.00284074,
        "meta_eccentricity": 0.01487808,
        "meta_inclination": 54.5808,
        "meta_ra_of_asc_node": 167.4476,
        "meta_arg_of_pericenter": 230.2031,
        "meta_mean_anomaly": 315.0387,
        "meta_ephemeris_type": 0,
        "meta_classification_type": "U",
        "meta_norad_cat_id": 37763,
        "meta_element_set_no": 999,
        "meta_rev_at_epoch": 5266,
        "meta_bstar": 0,
        "meta_mean_motion_dot": 1.01e-06,
        "meta_mean_motion_ddot": 0,
        "tle_line1": "1 37763U 11038A   25335.52233751  .00000101  00000+0  00000+0 0  9995",
        "tle_line2": "2 37763  54.5808 167.4476 0148780 230.2031 315.0387  1.00284074 52664"
      },
      "geometry": {
        "type": "Point",
        "coordinates": [
          -102.52241115978894,
          54.52294240993773
        ]
      }
    },
    {
      "type": "Feature",
      "properties": {
        "norad_id": 37948,
        "name": "BEIDOU-2 IGSO-5 (C10)",
        "group": "beidou",
        "lat": -11.726798279563669,
        "lon": -96.85740002722056,
        "alt_km": 36025.63341954641,
        "timestamp": "2025-12-08T05:48:09.299671+00:00",
        "meta_object_name": "BEIDOU-2 IGSO-5 (C10)",
        "meta_object_id": "2011-073A",
        "meta_epoch": "2025-12-07T19:12:14.882400",
        "meta_mean_motion": 1.00291658,
        "meta_eccentricity": 0.01104068,
        "meta_inclination": 48.0298,
        "meta_ra_of_asc_node": 273.9181,
        "meta_arg_of_pericenter": 222.1784,
        "meta_mean_anomaly": 321.4594,
        "meta_ephemeris_type": 0,
        "meta_classification_type": "U",
        "meta_norad_cat_id": 37948,
        "meta_element_set_no": 999,
        "meta_rev_at_epoch": 5121,
        "meta_bstar": 0,
        "meta_mean_motion_dot": -1.91e-06,
        "meta_mean_motion_ddot": 0,
        "tle_line1": "1 37948U 11073A   25341.80017225 -.00000191  00000+0  00000+0 0  9993",
        "tle_line2": "2 37948  48.0298 273.9181 0110406 222.1784 321.4594  1.00291658 51212"
      },
      "geometry": {
        "type": "Point",
        "coordinates": [
          -96.85740002722056,
          -11.726798279563669
        ]
      }
    },
    {
      "type": "Feature",
      "properties": {
        "norad_id": 38091,
        "name": "BEIDOU-2 G5 (C05)",
        "group": "beidou",
        "lat": 1.4271740891396434,
        "lon": -137.07733988130173,
        "alt_km": 35770.911094430114,
        "timestamp": "2025-12-08T05:48:09.299683+00:00",
        "meta_object_name": "BEIDOU-2 G5 (C05)",
        "meta_object_id": "2012-008A",
        "meta_epoch": "2025-12-07T22:49:38.694720",
        "meta_mean_motion": 1.00273933,
        "meta_eccentricity": 0.00125361,
        "meta_inclination": 3.0971,
        "meta_ra_of_asc_node": 70.7238,
        "meta_arg_of_pericenter": 226.7422,
        "meta_mean_anomaly": 180.645,
        "meta_ephemeris_type": 0,
        "meta_classification_type": "U",
        "meta_norad_cat_id": 38091,
        "meta_element_set_no": 999,
        "meta_rev_at_epoch": 5045,
        "meta_bstar": 0,
        "meta_mean_motion_dot": 5.8e-07,
        "meta_mean_motion_ddot": 0,
        "tle_line1": "1 38091U 12008A   25341.95114230  .00000058  00000+0  00000+0 0  9993",
        "tle_line2": "2 38091   3.0971  70.7238 0012536 226.7422 180.6450  1.00273933 50458"
      },
      "geometry": {
        "type": "Point",
        "coordinates": [
          -137.07733988130173,
          1.4271740891396434
        ]
      }
    }
  ]
}